EUTELSAT KONNECT        
1 45027U 20005B   25209.55151792  .00000045  00000+0  00000+0 0  9995
2 45027   0.0556  92.3073 0001150  97.7448 322.1430  1.00270006 21088
EUTELSAT QUANTUM        
1 49056U 21069B   25209.55949128  .00000121  00000+0  00000+0 0  9995
2 49056   0.0359 270.1516 0001899 228.8429  56.5565  1.00271566 14686
EUTELSAT KONNECT VHTS   
1 53765U 22110A   25209.55065125  .00000013  00000+0  00000+0 0  9991
2 53765   0.0572  95.8670 0002501  35.2203  16.3249  1.00271434  3583
EUTELSAT HOTBIRD 13F    
1 54048U 22134A   25208.98162153  .00000080  00000+0  00000+0 0  9991
2 54048   0.0643 280.4240 0001881  79.9981 311.8529  1.00272436 10125
EUTELSAT HOTBIRD 13G    
1 54225U 22146A   25208.83882227  .00000080  00000+0  00000+0 0  9996
2 54225   0.0528 245.0357 0002181 297.6509  78.0065  1.00272623  4217
EUTELSAT 10B            
1 54259U 22157A   25209.55195125  .00000064  00000+0  00000+0 0  9991
2 54259   0.0511  93.2501 0001597  51.1326  10.7287  1.00271885  9774
EUTELSAT 36D            
1 59346U 24059A   25209.55723794  .00000151  00000+0  00000+0 0  9992
2 59346   0.0200  83.7058 0000281  81.7589  17.4756  1.00268715  4904
